******** Week 1019 almanac for PRN-01 ********
ID:                         01
Health:                     000
Eccentricity:               0.8451938629E-002
Time of Applicability(s):  233472.0000
Orbital Inclination(rad):   0.9742479763
Rate of Right Ascen(r/s):  -0.8194627053E-008
SQRT(A)  (m 1/2):           5153.602539
Right Ascen at Week(rad):  -0.1476057658E+001
Argument of Perigee(rad):   0.684182770
Mean Anom(rad):             0.2868593508E+001
Af0(s):                    -0.1745223999E-003
Af1(s/s):                  -0.7275957614E-011
week:                        1019

******** Week 1019 almanac for PRN-02 ********
ID:                         02
Health:                     000
Eccentricity:               0.1892089844E-001
Time of Applicability(s):  233472.0000
Orbital Inclination(rad):   0.9533534802
Rate of Right Ascen(r/s):  -0.8331775623E-008
SQRT(A)  (m 1/2):           5153.604004
Right Ascen at Week(rad):  -0.1543104903E+001
Argument of Perigee(rad):  -1.764762879
Mean Anom(rad):            -0.3113297150E+001
Af0(s):                    -0.1554489136E-003
Af1(s/s):                  -0.1091393642E-010
week:                        1019

******** Week 1019 almanac for PRN-03 ********
ID:                         03
Health:                     000
Eccentricity:               0.1904010773E-002
Time of Applicability(s):  233472.0000
Orbital Inclination(rad):   0.9627970494
Rate of Right Ascen(r/s):  -0.7806039439E-008
SQRT(A)  (m 1/2):           5153.525879
Right Ascen at Week(rad):  -0.4332638105E+000
Argument of Perigee(rad):   0.609930011
Mean Anom(rad):             0.1888480902E+001
Af0(s):                     0.1850128174E-003
Af1(s/s):                   0.0000000000E+000
week:                        1019

******** Week 1019 almanac for PRN-05 ********
ID:                         05
Health:                     000
Eccentricity:               0.5547046661E-002
Time of Applicability(s):  233472.0000
Orbital Inclination(rad):   0.9496563468
Rate of Right Ascen(r/s):  -0.7954617056E-008
SQRT(A)  (m 1/2):           5153.593262
Right Ascen at Week(rad):  -0.4589534946E+000
Argument of Perigee(rad):   0.711054024
Mean Anom(rad):            -0.4705332519E+000
Af0(s):                     0.9536743164E-006
Af1(s/s):                   0.0000000000E+000
week:                        1019

******** Week 1019 almanac for PRN-06 ********
ID:                         06
Health:                     000
Eccentricity:               0.1594066620E-002
Time of Applicability(s):  233472.0000
Orbital Inclination(rad):   0.9739124180
Rate of Right Ascen(r/s):  -0.8171768958E-008
SQRT(A)  (m 1/2):           5153.484375
Right Ascen at Week(rad):  -0.1484345499E+001
Argument of Perigee(rad):  -1.175387687
Mean Anom(rad):             0.3077262458E+001
Af0(s):                     0.2622604370E-003
Af1(s/s):                  -0.7275957614E-011
week:                        1019

******** Week 1019 almanac for PRN-07 ********
ID:                         07
Health:                     000
Eccentricity:               0.1227855682E-001
Time of Applicability(s):  233472.0000
Orbital Inclination(rad):   0.9556904040
Rate of Right Ascen(r/s):  -0.8217485148E-008
SQRT(A)  (m 1/2):           5153.540039
Right Ascen at Week(rad):   0.1675514110E+001
Argument of Perigee(rad):  -2.475858474
Mean Anom(rad):             0.2253549604E+001
Af0(s):                     0.2098083496E-004
Af1(s/s):                  -0.7275957614E-011
week:                        1019

******** Week 1019 almanac for PRN-08 ********
ID:                         08
Health:                     000
Eccentricity:               0.4336833954E-002
Time of Applicability(s):  233472.0000
Orbital Inclination(rad):   0.9703351269
Rate of Right Ascen(r/s):  -0.7783181344E-008
SQRT(A)  (m 1/2):           5153.660156
Right Ascen at Week(rad):  -0.2542622591E+001
Argument of Perigee(rad):  -0.321020684
Mean Anom(rad):            -0.9495782995E+000
Af0(s):                    -0.1354217529E-003
Af1(s/s):                   0.0000000000E+000
week:                        1019

******** Week 1019 almanac for PRN-09 ********
ID:                         09
Health:                     000
Eccentricity:               0.1419544220E-002
Time of Applicability(s):  233472.0000
Orbital Inclination(rad):   0.9528081979
Rate of Right Ascen(r/s):  -0.7886042771E-008
SQRT(A)  (m 1/2):           5153.673828
Right Ascen at Week(rad):   0.5987839327E+000
Argument of Perigee(rad):   1.734391108
Mean Anom(rad):            -0.9052849788E+000
Af0(s):                     0.4501342773E-003
Af1(s/s):                  -0.7275957614E-011
week:                        1019

******** Week 1019 almanac for PRN-10 ********
ID:                         10
Health:                     000
Eccentricity:               0.4396915436E-002
Time of Applicability(s):  233472.0000
Orbital Inclination(rad):   0.9628330021
Rate of Right Ascen(r/s):  -0.7783181344E-008
SQRT(A)  (m 1/2):           5153.621094
Right Ascen at Week(rad):  -0.4365392489E+000
Argument of Perigee(rad):  -2.733508074
Mean Anom(rad):             0.8128248111E+000
Af0(s):                     0.1039505005E-003
Af1(s/s):                  -0.7275957614E-011
week:                        1019

******** Week 1019 almanac for PRN-11 ********
ID:                         11
Health:                     000
Eccentricity:               0.1655244827E-001
Time of Applicability(s):  233472.0000
Orbital Inclination(rad):   0.9083527157
Rate of Right Ascen(r/s):  -0.8754650381E-008
SQRT(A)  (m 1/2):           5153.620117
Right Ascen at Week(rad):  -0.1921738998E+001
Argument of Perigee(rad):   1.867574421
Mean Anom(rad):             0.2167669525E+001
Af0(s):                    -0.6504058838E-003
Af1(s/s):                   0.7275957614E-011
week:                        1019

******** Week 1019 almanac for PRN-12 ********
ID:                         12
Health:                     000
Eccentricity:               0.7524013519E-002
Time of Applicability(s):  233472.0000
Orbital Inclination(rad):   0.9839192458
Rate of Right Ascen(r/s):  -0.7508884204E-008
SQRT(A)  (m 1/2):           5153.647461
Right Ascen at Week(rad):   0.2774086660E+001
Argument of Perigee(rad):   1.039582825
Mean Anom(rad):             0.1526285792E+001
Af0(s):                     0.2622604370E-003
Af1(s/s):                  -0.3637978807E-011
week:                        1019

******** Week 1019 almanac for PRN-13 ********
ID:                         13
Health:                     000
Eccentricity:               0.3687858582E-002
Time of Applicability(s):  233472.0000
Orbital Inclination(rad):   0.9682019348
Rate of Right Ascen(r/s):  -0.7760323249E-008
SQRT(A)  (m 1/2):           5153.615234
Right Ascen at Week(rad):   0.7347292350E+000
Argument of Perigee(rad):   1.360258962
Mean Anom(rad):            -0.2334355113E+001
Af0(s):                    -0.7247924805E-004
Af1(s/s):                   0.0000000000E+000
week:                        1019

******** Week 1019 almanac for PRN-14 ********
ID:                         14
Health:                     000
Eccentricity:               0.1023101807E-001
Time of Applicability(s):  233472.0000
Orbital Inclination(rad):   0.9608076681
Rate of Right Ascen(r/s):  -0.7794610391E-008
SQRT(A)  (m 1/2):           5153.627441
Right Ascen at Week(rad):   0.6909014265E+000
Argument of Perigee(rad):  -1.948676540
Mean Anom(rad):            -0.1480920632E+001
Af0(s):                    -0.8964538574E-004
Af1(s/s):                   0.0000000000E+000
week:                        1019

******** Week 1019 almanac for PRN-15 ********
ID:                         15
Health:                     000
Eccentricity:               0.1122140884E-001
Time of Applicability(s):  233472.0000
Orbital Inclination(rad):   0.9283783555
Rate of Right Ascen(r/s):  -0.8080336578E-008
SQRT(A)  (m 1/2):           5153.592285
Right Ascen at Week(rad):   0.5208849728E+000
Argument of Perigee(rad):   0.765779613
Mean Anom(rad):            -0.2126093627E+001
Af0(s):                    -0.3252029419E-003
Af1(s/s):                   0.0000000000E+000
week:                        1019

******** Week 1019 almanac for PRN-16 ********
ID:                         16
Health:                     000
Eccentricity:               0.1066875458E-001
Time of Applicability(s):  233472.0000
Orbital Inclination(rad):   0.9843027410
Rate of Right Ascen(r/s):  -0.7497455156E-008
SQRT(A)  (m 1/2):           5153.745117
Right Ascen at Week(rad):   0.2792989527E+001
Argument of Perigee(rad):   0.547474223
Mean Anom(rad):            -0.3897917836E+000
Af0(s):                    -0.2288818359E-004
Af1(s/s):                  -0.3637978807E-011
week:                        1019

******** Week 1019 almanac for PRN-17 ********
ID:                         17
Health:                     000
Eccentricity:               0.1292753220E-001
Time of Applicability(s):  233472.0000
Orbital Inclination(rad):   0.9840330959
Rate of Right Ascen(r/s):  -0.7668890869E-008
SQRT(A)  (m 1/2):           5153.662598
Right Ascen at Week(rad):  -0.2476267061E+001
Argument of Perigee(rad):  -1.717435677
Mean Anom(rad):            -0.1294885015E+001
Af0(s):                     0.1907348633E-004
Af1(s/s):                   0.7275957614E-011
week:                        1019

******** Week 1019 almanac for PRN-18 ********
ID:                         18
Health:                     000
Eccentricity:               0.1507949829E-001
Time of Applicability(s):  233472.0000
Orbital Inclination(rad):   0.9527482768
Rate of Right Ascen(r/s):  -0.8411778956E-008
SQRT(A)  (m 1/2):           5153.666504
Right Ascen at Week(rad):  -0.1529405061E+001
Argument of Perigee(rad):   1.377959287
Mean Anom(rad):             0.2632833844E+001
Af0(s):                     0.3242492676E-004
Af1(s/s):                   0.3637978807E-011
week:                        1019

